CCSDS_OMM_VERS = 2.0
CREATION_DATE  = 
ORIGINATOR     = 

OBJECT_NAME    = STARLINK-36207
OBJECT_ID      = 2025-293M
CENTER_NAME    = EARTH
REF_FRAME      = TEME
TIME_SYSTEM    = UTC
MEAN_ELEMENT_THEORY = SGP/SGP4

EPOCH          = 2025-12-29T14:00:03.000384
MEAN_MOTION    = 15.61875742
ECCENTRICITY   = .00034709
INCLINATION    = 69.9996
RA_OF_ASC_NODE = 275.3867
ARG_OF_PERICENTER = 266.1762
MEAN_ANOMALY   = 61.1586

EPHEMERIS_TYPE = 0
CLASSIFICATION_TYPE = U
NORAD_CAT_ID   = 67014
ELEMENT_SET_NO = 999
REV_AT_EPOCH   = 287
BSTAR          = -.20562537E-1
MEAN_MOTION_DOT = -.1590834E-1
MEAN_MOTION_DDOT = 0

CCSDS_OMM_VERS = 2.0
CREATION_DATE  = 
ORIGINATOR     = 

OBJECT_NAME    = STARLINK-36093
OBJECT_ID      = 2025-293N
CENTER_NAME    = EARTH
REF_FRAME      = TEME
TIME_SYSTEM    = UTC
MEAN_ELEMENT_THEORY = SGP/SGP4

EPOCH          = 2025-12-29T14:00:03.000384
MEAN_MOTION    = 15.61841759
ECCENTRICITY   = .00034639
INCLINATION    = 69.9996
RA_OF_ASC_NODE = 275.3815
ARG_OF_PERICENTER = 266.3190
MEAN_ANOMALY   = 65.1763

EPHEMERIS_TYPE = 0
CLASSIFICATION_TYPE = U
NORAD_CAT_ID   = 67015
ELEMENT_SET_NO = 999
REV_AT_EPOCH   = 281
BSTAR          = -.20619412E-1
MEAN_MOTION_DOT = -.1592858E-1
MEAN_MOTION_DDOT = 0

CCSDS_OMM_VERS = 2.0
CREATION_DATE  = 
ORIGINATOR     = 

OBJECT_NAME    = STARLINK-36120
OBJECT_ID      = 2025-293P
CENTER_NAME    = EARTH
REF_FRAME      = TEME
TIME_SYSTEM    = UTC
MEAN_ELEMENT_THEORY = SGP/SGP4

EPOCH          = 2025-12-29T14:00:03.000384
MEAN_MOTION    = 15.61862858
ECCENTRICITY   = .00034465
INCLINATION    = 69.9995
RA_OF_ASC_NODE = 275.3840
ARG_OF_PERICENTER = 266.6921
MEAN_ANOMALY   = 62.6841

EPHEMERIS_TYPE = 0
CLASSIFICATION_TYPE = U
NORAD_CAT_ID   = 67016
ELEMENT_SET_NO = 999
REV_AT_EPOCH   = 281
BSTAR          = -.20591154E-1
MEAN_MOTION_DOT = -.1592071E-1
MEAN_MOTION_DDOT = 0

CCSDS_OMM_VERS = 2.0
CREATION_DATE  = 
ORIGINATOR     = 

OBJECT_NAME    = STARLINK-35498
OBJECT_ID      = 2025-293Q
CENTER_NAME    = EARTH
REF_FRAME      = TEME
TIME_SYSTEM    = UTC
MEAN_ELEMENT_THEORY = SGP/SGP4

EPOCH          = 2025-12-29T14:00:03.000384
MEAN_MOTION    = 15.61825208
ECCENTRICITY   = .00034981
INCLINATION    = 69.9996
RA_OF_ASC_NODE = 275.3788
ARG_OF_PERICENTER = 266.1394
MEAN_ANOMALY   = 67.4294

EPHEMERIS_TYPE = 0
CLASSIFICATION_TYPE = U
NORAD_CAT_ID   = 67017
ELEMENT_SET_NO = 999
REV_AT_EPOCH   = 300
BSTAR          = -.20634886E-1
MEAN_MOTION_DOT = -.1593029E-1
MEAN_MOTION_DDOT = 0

CCSDS_OMM_VERS = 2.0
CREATION_DATE  = 
ORIGINATOR     = 

OBJECT_NAME    = STARLINK-36106
OBJECT_ID      = 2025-293R
CENTER_NAME    = EARTH
REF_FRAME      = TEME
TIME_SYSTEM    = UTC
MEAN_ELEMENT_THEORY = SGP/SGP4

EPOCH          = 2025-12-29T14:00:03.000384
MEAN_MOTION    = 15.61804659
ECCENTRICITY   = .0003628
INCLINATION    = 69.9995
RA_OF_ASC_NODE = 275.3761
ARG_OF_PERICENTER = 266.2458
MEAN_ANOMALY   = 69.4023

EPHEMERIS_TYPE = 0
CLASSIFICATION_TYPE = U
NORAD_CAT_ID   = 67018
ELEMENT_SET_NO = 999
REV_AT_EPOCH   = 292
BSTAR          = -.20566238E-1
MEAN_MOTION_DOT = -.1587287E-1
MEAN_MOTION_DDOT = 0

CCSDS_OMM_VERS = 2.0
CREATION_DATE  = 
ORIGINATOR     = 

OBJECT_NAME    = STARLINK-35688
OBJECT_ID      = 2025-293S
CENTER_NAME    = EARTH
REF_FRAME      = TEME
TIME_SYSTEM    = UTC
MEAN_ELEMENT_THEORY = SGP/SGP4

EPOCH          = 2025-12-29T14:00:03.000384
MEAN_MOTION    = 15.61793311
ECCENTRICITY   = .00034625
INCLINATION    = 69.9996
RA_OF_ASC_NODE = 275.3737
ARG_OF_PERICENTER = 266.7395
MEAN_ANOMALY   = 70.9430

EPHEMERIS_TYPE = 0
CLASSIFICATION_TYPE = U
NORAD_CAT_ID   = 67019
ELEMENT_SET_NO = 999
REV_AT_EPOCH   = 300
BSTAR          = -.20606401E-1
MEAN_MOTION_DOT = -.1589296E-1
MEAN_MOTION_DDOT = 0

CCSDS_OMM_VERS = 2.0
CREATION_DATE  = 
ORIGINATOR     = 

OBJECT_NAME    = STARLINK-36172
OBJECT_ID      = 2025-293T
CENTER_NAME    = EARTH
REF_FRAME      = TEME
TIME_SYSTEM    = UTC
MEAN_ELEMENT_THEORY = SGP/SGP4

EPOCH          = 2025-12-29T14:00:03.000384
MEAN_MOTION    = 15.61762554
ECCENTRICITY   = .00034799
INCLINATION    = 69.9996
RA_OF_ASC_NODE = 275.3711
ARG_OF_PERICENTER = 267.3774
MEAN_ANOMALY   = 72.4944

EPHEMERIS_TYPE = 0
CLASSIFICATION_TYPE = U
NORAD_CAT_ID   = 67020
ELEMENT_SET_NO = 999
REV_AT_EPOCH   = 292
BSTAR          = -.20589015E-1
MEAN_MOTION_DOT = -.1586427E-1
MEAN_MOTION_DDOT = 0

CCSDS_OMM_VERS = 2.0
CREATION_DATE  = 
ORIGINATOR     = 

OBJECT_NAME    = STARLINK-36184
OBJECT_ID      = 2025-293U
CENTER_NAME    = EARTH
REF_FRAME      = TEME
TIME_SYSTEM    = UTC
MEAN_ELEMENT_THEORY = SGP/SGP4

EPOCH          = 2025-12-29T14:00:03.000384
MEAN_MOTION    = 15.61740342
ECCENTRICITY   = .00034892
INCLINATION    = 69.9996
RA_OF_ASC_NODE = 275.3683
ARG_OF_PERICENTER = 266.3675
MEAN_ANOMALY   = 75.6272

EPHEMERIS_TYPE = 0
CLASSIFICATION_TYPE = U
NORAD_CAT_ID   = 67021
ELEMENT_SET_NO = 999
REV_AT_EPOCH   = 292
BSTAR          = -.20594754E-1
MEAN_MOTION_DOT = -.1585606E-1
MEAN_MOTION_DDOT = 0

CCSDS_OMM_VERS = 2.0
CREATION_DATE  = 
ORIGINATOR     = 

OBJECT_NAME    = STARLINK-36209
OBJECT_ID      = 2025-293V
CENTER_NAME    = EARTH
REF_FRAME      = TEME
TIME_SYSTEM    = UTC
MEAN_ELEMENT_THEORY = SGP/SGP4

EPOCH          = 2025-12-29T14:00:03.000384
MEAN_MOTION    = 15.61706697
ECCENTRICITY   = .00035094
INCLINATION    = 69.9995
RA_OF_ASC_NODE = 275.3658
ARG_OF_PERICENTER = 266.4702
MEAN_ANOMALY   = 77.7585

EPHEMERIS_TYPE = 0
CLASSIFICATION_TYPE = U
NORAD_CAT_ID   = 67022
ELEMENT_SET_NO = 999
REV_AT_EPOCH   = 292
BSTAR          = -.2064727E-1
MEAN_MOTION_DOT = -.158736E-1
MEAN_MOTION_DDOT = 0

CCSDS_OMM_VERS = 2.0
CREATION_DATE  = 
ORIGINATOR     = 

OBJECT_NAME    = STARLINK-36191
OBJECT_ID      = 2025-293W
CENTER_NAME    = EARTH
REF_FRAME      = TEME
TIME_SYSTEM    = UTC
MEAN_ELEMENT_THEORY = SGP/SGP4

EPOCH          = 2025-12-29T14:00:03.000384
MEAN_MOTION    = 15.61689400
ECCENTRICITY   = .00035141
INCLINATION    = 69.9995
RA_OF_ASC_NODE = 275.3632
ARG_OF_PERICENTER = 266.3879
MEAN_ANOMALY   = 79.9356

EPHEMERIS_TYPE = 0
CLASSIFICATION_TYPE = U
NORAD_CAT_ID   = 67023
ELEMENT_SET_NO = 999
REV_AT_EPOCH   = 281
BSTAR          = -.20730826E-1
MEAN_MOTION_DOT = -.1592111E-1
MEAN_MOTION_DDOT = 0

CCSDS_OMM_VERS = 2.0
CREATION_DATE  = 
ORIGINATOR     = 

OBJECT_NAME    = STARLINK-36192
OBJECT_ID      = 2025-293X
CENTER_NAME    = EARTH
REF_FRAME      = TEME
TIME_SYSTEM    = UTC
MEAN_ELEMENT_THEORY = SGP/SGP4

EPOCH          = 2025-12-29T14:00:03.000384
MEAN_MOTION    = 15.61661547
ECCENTRICITY   = .00034962
INCLINATION    = 69.9995
RA_OF_ASC_NODE = 275.3608
ARG_OF_PERICENTER = 265.7569
MEAN_ANOMALY   = 82.7429

EPHEMERIS_TYPE = 0
CLASSIFICATION_TYPE = U
NORAD_CAT_ID   = 67024
ELEMENT_SET_NO = 999
REV_AT_EPOCH   = 292
BSTAR          = -.20759962E-1
MEAN_MOTION_DOT = -.1592549E-1
MEAN_MOTION_DDOT = 0

CCSDS_OMM_VERS = 2.0
CREATION_DATE  = 
ORIGINATOR     = 

OBJECT_NAME    = STARLINK-36178
OBJECT_ID      = 2025-293Y
CENTER_NAME    = EARTH
REF_FRAME      = TEME
TIME_SYSTEM    = UTC
MEAN_ELEMENT_THEORY = SGP/SGP4

EPOCH          = 2025-12-29T14:00:03.000384
MEAN_MOTION    = 15.61647716
ECCENTRICITY   = .00035109
INCLINATION    = 69.9994
RA_OF_ASC_NODE = 275.3582
ARG_OF_PERICENTER = 266.2567
MEAN_ANOMALY   = 84.2855

EPHEMERIS_TYPE = 0
CLASSIFICATION_TYPE = U
NORAD_CAT_ID   = 67025
ELEMENT_SET_NO = 999
REV_AT_EPOCH   = 292
BSTAR          = -.20760642E-1
MEAN_MOTION_DOT = -.1591844E-1
MEAN_MOTION_DDOT = 0

