STARLINK-36207          
1 67014U 25293M   25363.58336806 -.01590834  00000+0 -20563-1 0  9995
2 67014  69.9996 275.3867 0003470 266.1762  61.1586 15.61875742  2870
STARLINK-36093          
1 67015U 25293N   25363.58336806 -.01592858  00000+0 -20619-1 0  9996
2 67015  69.9996 275.3815 0003463 266.3190  65.1763 15.61841759  2819
STARLINK-36120          
1 67016U 25293P   25363.58336806 -.01592071  00000+0 -20591-1 0  9993
2 67016  69.9995 275.3840 0003446 266.6921  62.6841 15.61862858  2815
STARLINK-35498          
1 67017U 25293Q   25363.58336806 -.01593029  00000+0 -20635-1 0  9997
2 67017  69.9996 275.3788 0003498 266.1394  67.4294 15.61825208  3009
STARLINK-36106          
1 67018U 25293R   25363.58336806 -.01587287  00000+0 -20566-1 0  9990
2 67018  69.9995 275.3761 0003628 266.2458  69.4023 15.61804659  2926
STARLINK-35688          
1 67019U 25293S   25363.58336806 -.01589296  00000+0 -20606-1 0  9998
2 67019  69.9996 275.3737 0003462 266.7395  70.9430 15.61793311  3003
STARLINK-36172          
1 67020U 25293T   25363.58336806 -.01586427  00000+0 -20589-1 0  9993
2 67020  69.9996 275.3711 0003479 267.3774  72.4944 15.61762554  2925
STARLINK-36184          
1 67021U 25293U   25363.58336806 -.01585606  00000+0 -20595-1 0  9999
2 67021  69.9996 275.3683 0003489 266.3675  75.6272 15.61740342  2924
STARLINK-36209          
1 67022U 25293V   25363.58336806 -.01587360  00000+0 -20647-1 0  9997
2 67022  69.9995 275.3658 0003509 266.4702  77.7585 15.61706697  2926
STARLINK-36191          
1 67023U 25293W   25363.58336806 -.01592111  00000+0 -20731-1 0  9992
2 67023  69.9995 275.3632 0003514 266.3879  79.9356 15.61689400  2819
STARLINK-36192          
1 67024U 25293X   25363.58336806 -.01592549  00000+0 -20760-1 0  9990
2 67024  69.9995 275.3608 0003496 265.7569  82.7429 15.61661547  2928
STARLINK-36178          
1 67025U 25293Y   25363.58336806 -.01591844  00000+0 -20761-1 0  9999
2 67025  69.9994 275.3582 0003510 266.2567  84.2855 15.61647716  2922
